#cP2005  4 28 00 00 00.00000000    8638 U+u   IGS00 FIT DEOS
## 1320 345600.00000000    10.00000000 53488 0.0000000000000
+    1   L06  0  0  0  0  0  0  0  0  0  0  0  0  0  0  0  0
+          0  0  0  0  0  0  0  0  0  0  0  0  0  0  0  0  0
+          0  0  0  0  0  0  0  0  0  0  0  0  0  0  0  0  0
+          0  0  0  0  0  0  0  0  0  0  0  0  0  0  0  0  0
+          0  0  0  0  0  0  0  0  0  0  0  0  0  0  0  0  0
++         0  0  0  0  0  0  0  0  0  0  0  0  0  0  0  0  0
++         0  0  0  0  0  0  0  0  0  0  0  0  0  0  0  0  0
++         0  0  0  0  0  0  0  0  0  0  0  0  0  0  0  0  0
++         0  0  0  0  0  0  0  0  0  0  0  0  0  0  0  0  0
++         0  0  0  0  0  0  0  0  0  0  0  0  0  0  0  0  0
%c cc cc ccc ccc cccc cccc cccc cccc ccccc ccccc ccccc ccccc
%c cc cc ccc ccc cccc cccc cccc cccc ccccc ccccc ccccc ccccc
%f   .0000000   .000000000   .00000000000   .000000000000000
%f   .0000000   .000000000   .00000000000   .000000000000000
%i    0    0    0    0      0      0      0      0         0
%i    0    0    0    0      0      0      0      0         0
/* NOTE: CCCCCCCCCCCCCCCCCCCCCCCCCCCCCCCCCCCCCCCCCCCCCCCCCCC
/* CCCCCCCCCCCCCCCCCCCCCCCCCCCCCCCCCCCCCCCCCCCCCCCCCCCCCCCCC
/* CCCCCCCCCCCCCCCCCCCCCCCCCCCCCCCCCCCCCCCCCCCCCCCCCCCCCCCCC
/* CCCCCCCCCCCCCCCCCCCCCCCCCCCCCCCCCCCCCCCCCCCCCCCCCCCCCCCCC
*  2005 04 28 05 56 30.00000000
PL06    954.222064   2092.553644   6323.611368 999999.999999
*  2005 04 28 05 56 40.00000000
PL06    975.599483   2161.355185   6297.213101 999999.999999
*  2005 04 28 05 56 50.00000000
PL06    996.950537   2229.845333   6269.992645 999999.999999
*  2005 04 28 05 57 00.00000000
PL06   1018.271992   2298.015241   6241.953532 999999.999999
*  2005 04 28 05 57 10.00000000
PL06   1039.560607   2365.856106   6213.099397 999999.999999
*  2005 04 28 05 57 20.00000000
PL06   1060.813133   2433.359172   6183.433984 999999.999999
*  2005 04 28 05 57 30.00000000
PL06   1082.026309   2500.515732   6152.961141 999999.999999
*  2005 04 28 05 57 40.00000000
PL06   1103.196870   2567.317126   6121.684823 999999.999999
*  2005 04 28 05 57 50.00000000
PL06   1124.321542   2633.754745   6089.609088 999999.999999
*  2005 04 28 05 58 00.00000000
PL06   1145.397043   2699.820034   6056.738099 999999.999999
*  2005 04 28 05 58 10.00000000
PL06   1166.420088   2765.504485   6023.076125 999999.999999
*  2005 04 28 05 58 20.00000000
PL06   1187.387382   2830.799647   5988.627535 999999.999999
*  2005 04 28 05 58 30.00000000
PL06   1208.295629   2895.697125   5953.396801 999999.999999
*  2005 04 28 05 58 40.00000000
PL06   1229.141524   2960.188576   5917.388500 999999.999999
*  2005 04 28 05 58 50.00000000
PL06   1249.921761   3024.265716   5880.607307 999999.999999
*  2005 04 28 05 59 00.00000000
PL06   1270.633028   3087.920319   5843.058000 999999.999999
*  2005 04 28 05 59 10.00000000
PL06   1291.272012   3151.144217   5804.745457 999999.999999
*  2005 04 28 05 59 20.00000000
PL06   1311.835395   3213.929302   5765.674655 999999.999999
*  2005 04 28 05 59 30.00000000
PL06   1332.319858   3276.267528   5725.850671 999999.999999
*  2005 04 28 05 59 40.00000000
PL06   1352.722080   3338.150910   5685.278680 999999.999999
*  2005 04 28 05 59 50.00000000
PL06   1373.038737   3399.571528   5643.963955 999999.999999
*  2005 04 28 06 00 00.00000000
PL06   1393.266508   3460.521523   5601.911866 999999.999999
*  2005 04 28 06 00 10.00000000
PL06   1413.402069   3520.993105   5559.127881 999999.999999
*  2005 04 28 06 00 20.00000000
PL06   1433.442097   3580.978546   5515.617561 999999.999999
*  2005 04 28 06 00 30.00000000
PL06   1453.383270   3640.470189   5471.386565 999999.999999
*  2005 04 28 06 00 40.00000000
PL06   1473.222267   3699.460444   5426.440646 999999.999999
*  2005 04 28 06 00 50.00000000
PL06   1492.955771   3757.941790   5380.785650 999999.999999
*  2005 04 28 06 01 00.00000000
PL06   1512.580465   3815.906775   5334.427516 999999.999999
*  2005 04 28 06 01 10.00000000
PL06   1532.093036   3873.348021   5287.372276 999999.999999
*  2005 04 28 06 01 20.00000000
PL06   1551.490176   3930.258221   5239.626054 999999.999999
*  2005 04 28 06 01 30.00000000
PL06   1570.768579   3986.630140   5191.195063 999999.999999
*  2005 04 28 06 01 40.00000000
PL06   1589.924945   4042.456620   5142.085610 999999.999999
*  2005 04 28 06 01 50.00000000
PL06   1608.955980   4097.730575   5092.304086 999999.999999
*  2005 04 28 06 02 00.00000000
PL06   1627.858396   4152.444999   5041.856975 999999.999999
*  2005 04 28 06 02 10.00000000
PL06   1646.628909   4206.592959   4990.750846 999999.999999
*  2005 04 28 06 02 20.00000000
PL06   1665.264245   4260.167604   4938.992354 999999.999999
*  2005 04 28 06 02 30.00000000
PL06   1683.761135   4313.162159   4886.588242 999999.999999
*  2005 04 28 06 02 40.00000000
PL06   1702.116320   4365.569929   4833.545337 999999.999999
*  2005 04 28 06 02 50.00000000
PL06   1720.326549   4417.384301   4779.870548 999999.999999
*  2005 04 28 06 03 00.00000000
PL06   1738.388580   4468.598742   4725.570870 999999.999999
*  2005 04 28 06 03 10.00000000
PL06   1756.299179   4519.206803   4670.653378 999999.999999
*  2005 04 28 06 03 20.00000000
PL06   1774.055123   4569.202116   4615.125229 999999.999999
*  2005 04 28 06 03 30.00000000
PL06   1791.653201   4618.578398   4558.993662 999999.999999
*  2005 04 28 06 03 40.00000000
PL06   1809.090213   4667.329450   4502.265994 999999.999999
*  2005 04 28 06 03 50.00000000
PL06   1826.362968   4715.449159   4444.949621 999999.999999
*  2005 04 28 06 04 00.00000000
PL06   1843.468292   4762.931498   4387.052017 999999.999999
*  2005 04 28 06 04 10.00000000
PL06   1860.403020   4809.770528   4328.580732 999999.999999
*  2005 04 28 06 04 20.00000000
PL06   1877.164001   4855.960397   4269.543393 999999.999999
*  2005 04 28 06 04 30.00000000
PL06   1893.748101   4901.495340   4209.947701 999999.999999
*  2005 04 28 06 04 40.00000000
PL06   1910.152198   4946.369686   4149.801432 999999.999999
*  2005 04 28 06 04 50.00000000
PL06   1926.373186   4990.577849   4089.112433 999999.999999
*  2005 04 28 06 05 00.00000000
PL06   1942.407974   5034.114337   4027.888625 999999.999999
*  2005 04 28 06 05 10.00000000
PL06   1958.253490   5076.973749   3966.137999 999999.999999
*  2005 04 28 06 05 20.00000000
PL06   1973.906677   5119.150775   3903.868615 999999.999999
*  2005 04 28 06 05 30.00000000
PL06   1989.364496   5160.640198   3841.088603 999999.999999
*  2005 04 28 06 05 40.00000000
PL06   2004.623926   5201.436895   3777.806162 999999.999999
*  2005 04 28 06 05 50.00000000
PL06   2019.681966   5241.535838   3714.029558 999999.999999
*  2005 04 28 06 06 00.00000000
PL06   2034.535632   5280.932094   3649.767121 999999.999999
*  2005 04 28 06 06 10.00000000
PL06   2049.181960   5319.620830   3585.027247 999999.999999
*  2005 04 28 06 06 20.00000000
PL06   2063.618006   5357.597304   3519.818396 999999.999999
*  2005 04 28 06 06 30.00000000
PL06   2077.840848   5394.856878   3454.149089 999999.999999
*  2005 04 28 06 06 40.00000000
PL06   2091.847581   5431.395007   3388.027909 999999.999999
*  2005 04 28 06 06 50.00000000
PL06   2105.635327   5467.207249   3321.463497 999999.999999
*  2005 04 28 06 07 00.00000000
PL06   2119.201226   5502.289259   3254.464555 999999.999999
*  2005 04 28 06 07 10.00000000
PL06   2132.542442   5536.636791   3187.039841 999999.999999
*  2005 04 28 06 07 20.00000000
PL06   2145.656163   5570.245702   3119.198168 999999.999999
*  2005 04 28 06 07 30.00000000
PL06   2158.539599   5603.111948   3050.948407 999999.999999
*  2005 04 28 06 07 40.00000000
PL06   2171.189986   5635.231584   2982.299482 999999.999999
*  2005 04 28 06 07 50.00000000
PL06   2183.604583   5666.600769   2913.260368 999999.999999
*  2005 04 28 06 08 00.00000000
PL06   2195.780676   5697.215765   2843.840094 999999.999999
*  2005 04 28 06 08 10.00000000
PL06   2207.715577   5727.072934   2774.047739 999999.999999
*  2005 04 28 06 08 20.00000000
PL06   2219.406622   5756.168742   2703.892432 999999.999999
*  2005 04 28 06 08 30.00000000
PL06   2230.851179   5784.499759   2633.383351 999999.999999
*  2005 04 28 06 08 40.00000000
PL06   2242.046639   5812.062661   2562.529717 999999.999999
*  2005 04 28 06 08 50.00000000
PL06   2252.990423   5838.854225   2491.340802 999999.999999
*  2005 04 28 06 09 00.00000000
PL06   2263.679981   5864.871336   2419.825919 999999.999999
*  2005 04 28 06 09 10.00000000
PL06   2274.112791   5890.110983   2347.994425 999999.999999
*  2005 04 28 06 09 20.00000000
PL06   2284.286361   5914.570263   2275.855719 999999.999999
*  2005 04 28 06 09 30.00000000
PL06   2294.198230   5938.246375   2203.419239 999999.999999
*  2005 04 28 06 09 40.00000000
PL06   2303.845967   5961.136628   2130.694465 999999.999999
*  2005 04 28 06 09 50.00000000
PL06   2313.227170   5983.238436   2057.690913 999999.999999
*  2005 04 28 06 10 00.00000000
PL06   2322.339471   6004.549321   1984.418135 999999.999999
*  2005 04 28 06 10 10.00000000
PL06   2331.180533   6025.066912   1910.885721 999999.999999
*  2005 04 28 06 10 20.00000000
PL06   2339.748051   6044.788945   1837.103293 999999.999999
*  2005 04 28 06 10 30.00000000
PL06   2348.039752   6063.713265   1763.080505 999999.999999
*  2005 04 28 06 10 40.00000000
PL06   2356.053397   6081.837823   1688.827045 999999.999999
*  2005 04 28 06 10 50.00000000
PL06   2363.786782   6099.160680   1614.352630 999999.999999
*  2005 04 28 06 11 00.00000000
PL06   2371.237733   6115.680005   1539.667006 999999.999999
*  2005 04 28 06 11 10.00000000
PL06   2378.404115   6131.394076   1464.779946 999999.999999
*  2005 04 28 06 11 20.00000000
PL06   2385.283825   6146.301278   1389.701250 999999.999999
*  2005 04 28 06 11 30.00000000
PL06   2391.874797   6160.400108   1314.440744 999999.999999
*  2005 04 28 06 11 40.00000000
PL06   2398.175001   6173.689170   1239.008276 999999.999999
*  2005 04 28 06 11 50.00000000
PL06   2404.182441   6186.167179   1163.413718 999999.999999
EOF
